COSMOS 2425 (716)       
1 29670U 06062A   18327.43020772 -.00000003  00000-0  10000-3 0  9992
2 29670  65.2045 287.1518 0022065 339.5013 219.6771  2.13104994 92703
COSMOS 2426 (717)       
1 29671U 06062B   18326.73920613 -.00000006  00000-0  10000-3 0  9991
2 29671  65.2233 287.2767 0017529 173.5993  70.0715  2.13103121 92698
COSMOS 2433 (720)       
1 32275U 07052A   18326.53484993 -.00000038  00000-0  10000-3 0  9994
2 32275  65.7623  48.0550 0003585 233.5759 189.4316  2.13104605 86207
COSMOS 2432 (719)       
1 32276U 07052B   18326.51841676 -.00000038  00000-0  10000-3 0  9998
2 32276  65.7741  48.1356 0009559 326.6596  35.3195  2.13103791 86203
COSMOS 2434 (721)       
1 32393U 07065A   18327.18053954 -.00000005  00000-0  00000+0 0  9999
2 32393  64.8187 286.0581 0001850 143.6646 302.3855  2.13102971 84925
COSMOS 2436 (723)       
1 32395U 07065C   18327.16673818 -.00000005  00000-0  10000-3 0  9991
2 32395  64.8285 286.1110 0015485 350.8468 135.8971  2.13104329 84857
COSMOS 2456 (730)       
1 36111U 09070A   18326.89023976  .00000114  00000-0  00000+0 0  9997
2 36111  64.1895 165.6775 0003129 346.8123  49.2112  2.13103013 69587
COSMOS 2457 (733)       
1 36112U 09070B   18327.36049440  .00000110  00000-0  00000+0 0  9991
2 36112  64.1715 165.5693 0006621 149.4898  13.3663  2.13101601 69598
COSMOS 2458 (734)       
1 36113U 09070C   18326.60911214  .00000115  00000-0  10000-3 0  9995
2 36113  64.1774 165.6083 0003025  50.6544 298.7995  2.13091853 69576
COSMOS 2459 (731)       
1 36400U 10007A   18326.61009522 -.00000038  00000-0  10000-3 0  9992
2 36400  65.6700  47.0949 0024825 350.2409 348.1165  2.13102116 67925
COSMOS 2461 (735)       
1 36401U 10007B   18327.12699728 -.00000036  00000-0  10000-3 0  9991
2 36401  65.6626  47.0514 0005970  79.0341 206.4366  2.13102022 67938
COSMOS 2460 (732)       
1 36402U 10007C   18327.26322861 -.00000036  00000-0  10000-3 0  9998
2 36402  65.6537  47.0130 0001433 187.7163 242.5865  2.13101589 67946
COSMOS 2464 (736)       
1 37139U 10041C   18326.60060060 -.00000008  00000-0  00000-0 0  9996
2 37139  64.4218 285.8047 0023756   6.1118 222.8519  2.13102765 63997
COSMOS 2471 (701K)      
1 37372U 11009A   18327.36396449 -.00000035  00000-0  00000+0 0  9996
2 37372  65.6509  46.9532 0009436 226.9195  68.0675  2.13107677 60215
COSMOS 2474 (742)       
1 37829U 11055A   18327.22512854  .00000112  00000-0  00000+0 0  9994
2 37829  64.5134 166.4510 0006861 238.9885 271.3245  2.13101875 55586
COSMOS 2476 (744)       
1 37867U 11064A   18326.52797941  .00000116  00000-0  00000+0 0  9994
2 37867  64.4916 166.5319 0016750 236.9497 144.6094  2.13101929 54929
COSMOS 2477 (745)       
1 37868U 11064B   18326.78569593  .00000115  00000-0  00000+0 0  9992
2 37868  64.5007 166.5748 0014494 237.7857 160.3133  2.13101815 54888
COSMOS 2475 (743)       
1 37869U 11064C   18326.89081753  .00000114  00000-0  00000+0 0  9991
2 37869  64.5072 166.5665 0018411 265.7922 169.8643  2.13102139 54897
COSMOS 2485 (747)       
1 39155U 13019A   18327.13691236  .00000113  00000-0  00000+0 0  9993
2 39155  64.6607 166.6567 0017311 231.4777 302.0778  2.13102009 43401
COSMOS 2492 (754)       
1 39620U 14012A   18327.19865214 -.00000036  00000-0  10000-3 0  9999
2 39620  65.5437  46.8776 0013076 323.5183 292.3256  2.13103434 36359
COSMOS 2500 (755)       
1 40001U 14032A   18326.93424556 -.00000037  00000-0  00000+0 0  9993
2 40001  65.4841  46.8437 0007646 203.5620  71.3372  2.13102620 34566
COSMOS 2501 (702K)      
1 40315U 14075A   18326.67291811 -.00000008  00000-0  00000+0 0  9993
2 40315  64.1450 286.9580 0016773 212.4806  21.9135  2.13098533 30963
COSMOS 2514 (751)       
1 41330U 16008A   18326.72555442 -.00000038  00000-0  00000+0 0  9991
2 41330  65.2864  46.8662 0010959 213.0503  82.9893  2.13103152 21723
COSMOS 2516 (753)       
1 41554U 16032A   18327.28282904 -.00000005  00000-0  00000+0 0  9992
2 41554  64.3655 286.8442 0014039 225.8768  28.4836  2.13101767 19345
COSMOS 2522 (752)       
1 42939U 17055A   18327.41834902 -.00000004  00000-0  00000+0 0  9991
2 42939  64.5972 286.8543 0009701 251.5423 333.2249  2.13101992  9101
